<?xml version="1.0" encoding="UTF-8"?>
<ndm xmlns:xsi="http://www.w3.org/2001/XMLSchema-instance" xsi:noNamespaceSchemaLocation="https://sanaregistry.org/r/ndmxml_unqualified/ndmxml-2.0.0-master-2.0.xsd">
<omm id="CCSDS_OMM_VERS" version="2.0">
<header><CREATION_DATE/><ORIGINATOR/></header><body><segment><metadata><OBJECT_NAME>ORBCOMM FM37</OBJECT_NAME><OBJECT_ID>2008-031E</OBJECT_ID><CENTER_NAME>EARTH</CENTER_NAME><REF_FRAME>TEME</REF_FRAME><TIME_SYSTEM>UTC</TIME_SYSTEM><MEAN_ELEMENT_THEORY>SGP4</MEAN_ELEMENT_THEORY></metadata><data><meanElements><EPOCH>2025-04-21T20:16:39.410112</EPOCH><MEAN_MOTION>14.79541097</MEAN_MOTION><ECCENTRICITY>.0005133</ECCENTRICITY><INCLINATION>48.4385</INCLINATION><RA_OF_ASC_NODE>251.4477</RA_OF_ASC_NODE><ARG_OF_PERICENTER>138.9809</ARG_OF_PERICENTER><MEAN_ANOMALY>22.1128</MEAN_ANOMALY></meanElements><tleParameters><EPHEMERIS_TYPE>0</EPHEMERIS_TYPE><CLASSIFICATION_TYPE>U</CLASSIFICATION_TYPE><NORAD_CAT_ID>33064</NORAD_CAT_ID><ELEMENT_SET_NO>999</ELEMENT_SET_NO><REV_AT_EPOCH>90570</REV_AT_EPOCH><BSTAR>.56422E-3</BSTAR><MEAN_MOTION_DOT>.4059E-4</MEAN_MOTION_DOT><MEAN_MOTION_DDOT>0</MEAN_MOTION_DDOT></tleParameters></data></segment></body></omm>
<omm id="CCSDS_OMM_VERS" version="2.0">
<header><CREATION_DATE/><ORIGINATOR/></header><body><segment><metadata><OBJECT_NAME>ORBCOMM FM40</OBJECT_NAME><OBJECT_ID>2008-031F</OBJECT_ID><CENTER_NAME>EARTH</CENTER_NAME><REF_FRAME>TEME</REF_FRAME><TIME_SYSTEM>UTC</TIME_SYSTEM><MEAN_ELEMENT_THEORY>SGP4</MEAN_ELEMENT_THEORY></metadata><data><meanElements><EPOCH>2025-04-21T18:32:44.882880</EPOCH><MEAN_MOTION>14.81722967</MEAN_MOTION><ECCENTRICITY>.0006334</ECCENTRICITY><INCLINATION>48.4404</INCLINATION><RA_OF_ASC_NODE>236.7570</RA_OF_ASC_NODE><ARG_OF_PERICENTER>151.0257</ARG_OF_PERICENTER><MEAN_ANOMALY>2.1395</MEAN_ANOMALY></meanElements><tleParameters><EPHEMERIS_TYPE>0</EPHEMERIS_TYPE><CLASSIFICATION_TYPE>U</CLASSIFICATION_TYPE><NORAD_CAT_ID>33065</NORAD_CAT_ID><ELEMENT_SET_NO>999</ELEMENT_SET_NO><REV_AT_EPOCH>90579</REV_AT_EPOCH><BSTAR>.62803E-3</BSTAR><MEAN_MOTION_DOT>.4793E-4</MEAN_MOTION_DOT><MEAN_MOTION_DDOT>0</MEAN_MOTION_DDOT></tleParameters></data></segment></body></omm>
<omm id="CCSDS_OMM_VERS" version="2.0">
<header><CREATION_DATE/><ORIGINATOR/></header><body><segment><metadata><OBJECT_NAME>ORBCOMM FM109</OBJECT_NAME><OBJECT_ID>2014-040A</OBJECT_ID><CENTER_NAME>EARTH</CENTER_NAME><REF_FRAME>TEME</REF_FRAME><TIME_SYSTEM>UTC</TIME_SYSTEM><MEAN_ELEMENT_THEORY>SGP4</MEAN_ELEMENT_THEORY></metadata><data><meanElements><EPOCH>2025-04-21T19:00:59.415840</EPOCH><MEAN_MOTION>14.58072227</MEAN_MOTION><ECCENTRICITY>.0001137</ECCENTRICITY><INCLINATION>47.0036</INCLINATION><RA_OF_ASC_NODE>282.6191</RA_OF_ASC_NODE><ARG_OF_PERICENTER>90.9294</ARG_OF_PERICENTER><MEAN_ANOMALY>269.1722</MEAN_ANOMALY></meanElements><tleParameters><EPHEMERIS_TYPE>0</EPHEMERIS_TYPE><CLASSIFICATION_TYPE>U</CLASSIFICATION_TYPE><NORAD_CAT_ID>40086</NORAD_CAT_ID><ELEMENT_SET_NO>999</ELEMENT_SET_NO><REV_AT_EPOCH>57283</REV_AT_EPOCH><BSTAR>.32189E-3</BSTAR><MEAN_MOTION_DOT>.1326E-4</MEAN_MOTION_DOT><MEAN_MOTION_DDOT>0</MEAN_MOTION_DDOT></tleParameters></data></segment></body></omm>
<omm id="CCSDS_OMM_VERS" version="2.0">
<header><CREATION_DATE/><ORIGINATOR/></header><body><segment><metadata><OBJECT_NAME>ORBCOMM FM107</OBJECT_NAME><OBJECT_ID>2014-040B</OBJECT_ID><CENTER_NAME>EARTH</CENTER_NAME><REF_FRAME>TEME</REF_FRAME><TIME_SYSTEM>UTC</TIME_SYSTEM><MEAN_ELEMENT_THEORY>SGP4</MEAN_ELEMENT_THEORY></metadata><data><meanElements><EPOCH>2025-04-21T19:45:51.072192</EPOCH><MEAN_MOTION>14.58134389</MEAN_MOTION><ECCENTRICITY>.0000908</ECCENTRICITY><INCLINATION>47.0052</INCLINATION><RA_OF_ASC_NODE>283.4564</RA_OF_ASC_NODE><ARG_OF_PERICENTER>354.2558</ARG_OF_PERICENTER><MEAN_ANOMALY>5.8317</MEAN_ANOMALY></meanElements><tleParameters><EPHEMERIS_TYPE>0</EPHEMERIS_TYPE><CLASSIFICATION_TYPE>U</CLASSIFICATION_TYPE><NORAD_CAT_ID>40087</NORAD_CAT_ID><ELEMENT_SET_NO>999</ELEMENT_SET_NO><REV_AT_EPOCH>57291</REV_AT_EPOCH><BSTAR>.37683E-3</BSTAR><MEAN_MOTION_DOT>.1584E-4</MEAN_MOTION_DOT><MEAN_MOTION_DDOT>0</MEAN_MOTION_DDOT></tleParameters></data></segment></body></omm>
<omm id="CCSDS_OMM_VERS" version="2.0">
<header><CREATION_DATE/><ORIGINATOR/></header><body><segment><metadata><OBJECT_NAME>ORBCOMM FM111</OBJECT_NAME><OBJECT_ID>2014-040D</OBJECT_ID><CENTER_NAME>EARTH</CENTER_NAME><REF_FRAME>TEME</REF_FRAME><TIME_SYSTEM>UTC</TIME_SYSTEM><MEAN_ELEMENT_THEORY>SGP4</MEAN_ELEMENT_THEORY></metadata><data><meanElements><EPOCH>2025-04-21T21:09:52.196832</EPOCH><MEAN_MOTION>14.85963517</MEAN_MOTION><ECCENTRICITY>.0030924</ECCENTRICITY><INCLINATION>47.0025</INCLINATION><RA_OF_ASC_NODE>327.5182</RA_OF_ASC_NODE><ARG_OF_PERICENTER>281.9757</ARG_OF_PERICENTER><MEAN_ANOMALY>77.7674</MEAN_ANOMALY></meanElements><tleParameters><EPHEMERIS_TYPE>0</EPHEMERIS_TYPE><CLASSIFICATION_TYPE>U</CLASSIFICATION_TYPE><NORAD_CAT_ID>40089</NORAD_CAT_ID><ELEMENT_SET_NO>999</ELEMENT_SET_NO><REV_AT_EPOCH>58185</REV_AT_EPOCH><BSTAR>.58359E-3</BSTAR><MEAN_MOTION_DOT>.4983E-4</MEAN_MOTION_DOT><MEAN_MOTION_DDOT>0</MEAN_MOTION_DDOT></tleParameters></data></segment></body></omm>
<omm id="CCSDS_OMM_VERS" version="2.0">
<header><CREATION_DATE/><ORIGINATOR/></header><body><segment><metadata><OBJECT_NAME>ORBCOMM FM104</OBJECT_NAME><OBJECT_ID>2014-040E</OBJECT_ID><CENTER_NAME>EARTH</CENTER_NAME><REF_FRAME>TEME</REF_FRAME><TIME_SYSTEM>UTC</TIME_SYSTEM><MEAN_ELEMENT_THEORY>SGP4</MEAN_ELEMENT_THEORY></metadata><data><meanElements><EPOCH>2025-04-21T21:17:47.969664</EPOCH><MEAN_MOTION>14.56550938</MEAN_MOTION><ECCENTRICITY>.001675</ECCENTRICITY><INCLINATION>47.0059</INCLINATION><RA_OF_ASC_NODE>316.0886</RA_OF_ASC_NODE><ARG_OF_PERICENTER>306.5283</ARG_OF_PERICENTER><MEAN_ANOMALY>53.4060</MEAN_ANOMALY></meanElements><tleParameters><EPHEMERIS_TYPE>0</EPHEMERIS_TYPE><CLASSIFICATION_TYPE>U</CLASSIFICATION_TYPE><NORAD_CAT_ID>40090</NORAD_CAT_ID><ELEMENT_SET_NO>999</ELEMENT_SET_NO><REV_AT_EPOCH>57241</REV_AT_EPOCH><BSTAR>.28383E-3</BSTAR><MEAN_MOTION_DOT>.1108E-4</MEAN_MOTION_DOT><MEAN_MOTION_DDOT>0</MEAN_MOTION_DDOT></tleParameters></data></segment></body></omm>

</ndm>
