ORBCOMM FM37            
1 33064U 08031E   25111.84490058  .00004059  00000+0  56422-3 0  9995
2 33064  48.4385 251.4477 0005133 138.9809  22.1128 14.79541097905704
ORBCOMM FM40            
1 33065U 08031F   25111.77274170  .00004793  00000+0  62803-3 0  9998
2 33065  48.4404 236.7570 0006334 151.0257   2.1395 14.81722967905797
ORBCOMM FM109           
1 40086U 14040A   25111.79235435  .00001326  00000+0  32189-3 0  9992
2 40086  47.0036 282.6191 0001137  90.9294 269.1722 14.58072227572836
ORBCOMM FM107           
1 40087U 14040B   25111.82350778  .00001584  00000+0  37683-3 0  9995
2 40087  47.0052 283.4564 0000908 354.2558   5.8317 14.58134389572914
ORBCOMM FM111           
1 40089U 14040D   25111.88185413  .00004983  00000+0  58359-3 0  9994
2 40089  47.0025 327.5182 0030924 281.9757  77.7674 14.85963517581850
ORBCOMM FM104           
1 40090U 14040E   25111.88736076  .00001108  00000+0  28383-3 0  9993
2 40090  47.0059 316.0886 0016750 306.5283  53.4060 14.56550938572411
